address_id,street_address,suburb,state,postcode,locality,subdivision_code,latitude,longitude
PO-BOX-115-Tawonga-VIC-3697,PO BOX 115,Tawonga,VIC,3697,,,0.0,0.0
58-St-Bernard-Drive-Tawonga-South-Vic-3698,58 St Bernard Drive,Tawonga South,Vic,3698,Tawonga South,Vic,-36.7342227,147.15223263
7-Hollonds-Street-Mount-Beauty-VIC-3699,7 Hollonds Street,Mount Beauty,VIC,3699,,,0.0,0.0
105-Kiewa-Valley-Highway-Tawonga-South-Vic-3698,105 Kiewa Valley Highway,Tawonga South,Vic,3698,Tawonga South,Vic,-36.72754226,147.15048468
"Shop-2,-215-Kiewa-Valley-Highway-Tawonga-South-VIC-3698","Shop 2, 215 Kiewa Valley Highway",Tawonga South,VIC,3698,,,0.0,0.0
6-Wonnangatta-Avenue-Tawonga-South-Vic-3698,6 Wonnangatta Avenue,Tawonga South,Vic,3698,Tawonga South,Vic,-36.73295924,147.15388589
"WR-1-West-St-Falls,-17-Bogong-High-Plains-Road-Falls-Creek-VIC-3699","WR 1 West St Falls, 17 Bogong High Plains Road",Falls Creek,VIC,3699,,,0.0,0.0
4-Myrtle-Street-Tawonga-South-Vic-3698,4 Myrtle Street,Tawonga South,Vic,3698,Tawonga South,Vic,-36.73298005,147.15264781
7-Feathertop-Street-Tawonga-South-Vic-3698,7 Feathertop Street,Tawonga South,Vic,3698,Tawonga South,Vic,-36.72821473,147.14999431
182A-Simmonds-Creek-Road-Tawonga-South-Vic-3698,182A Simmonds Creek Road,Tawonga South,Vic,3698,Tawonga South,Vic,-36.74983633,147.15019032
70-St-Bernard-Drive-Tawonga-South-Vic-3698,70 St Bernard Drive,Tawonga South,Vic,3698,Tawonga South,Vic,-36.73420392,147.1511084
14-Buckland-Street-Tawonga-South-Vic-3698,14 Buckland Street,Tawonga South,Vic,3698,Tawonga South,Vic,-36.72757345,147.14696481
7-Reid-Court-Tawonga-South-Vic-3698,7 Reid Court,Tawonga South,Vic,3698,Tawonga South,Vic,-36.72672156,147.1476116
36-Young-Crescent-Tawonga-South-Vic-3698,36 Young Crescent,Tawonga South,Vic,3698,Tawonga South,Vic,-36.73196671,147.1521245
31-Simmonds-Creek-Road-Tawonga-South-Vic-3698,31 Simmonds Creek Road,Tawonga South,Vic,3698,Tawonga South,Vic,-36.74235895,147.16127814
39-41-Kiewa-Valley-Highway-Tawonga-South-Vic-3698,39-41 Kiewa Valley Highway,Tawonga South,Vic,3698,Tawonga South,Vic,-36.72190188,147.1477587
12-Myrtle-Street-Tawonga-South-Vic-3698,12 Myrtle Street,Tawonga South,Vic,3698,Tawonga South,Vic,-36.73259325,147.15216841
5-Omeo-Court-Tawonga-South-Vic-3698,5 Omeo Court,Tawonga South,Vic,3698,Tawonga South,Vic,-36.73353845,147.1519371
260-262-Kiewa-Valley-Highway-Tawonga-South-Vic-3698,260-262 Kiewa Valley Highway,Tawonga South,Vic,3698,Tawonga South,Vic,-36.7389679,147.16220745
9-Simmonds-Creek-Road-Tawonga-South-Vic-3698,9 Simmonds Creek Road,Tawonga South,Vic,3698,Tawonga South,Vic,-36.74016814,147.16151869
45-Kiewa-Valley-Highway-Tawonga-South-Vic-3698,45 Kiewa Valley Highway,Tawonga South,Vic,3698,Tawonga South,Vic,-36.72232775,147.14795178
283-Simmonds-Creek-Road-Tawonga-South-Vic-3698,283 Simmonds Creek Road,Tawonga South,Vic,3698,Tawonga South,Vic,-36.75583034,147.14623026
8-Allamar-Court-Tawonga-South-Vic-3698,8 Allamar Court,Tawonga South,Vic,3698,Tawonga South,Vic,-36.72408604,147.14752846
91-Glenbourn-Drive-Tawonga-South-Vic-3698,91 Glenbourn Drive,Tawonga South,Vic,3698,Tawonga South,Vic,-36.75114023,147.15960302
19-Wonnangatta-Avenue-Tawonga-South-Vic-3698,19 Wonnangatta Avenue,Tawonga South,Vic,3698,Tawonga South,Vic,-36.73329522,147.15307037
5/1-Allamar-Court-Tawonga-South-Vic-3698,5/1 Allamar Court,Tawonga South,Vic,3698,Tawonga South,Vic,-36.72335932,147.14596688
156-Kiewa-Valley-Highway-Tawonga-South-Vic-3698,156 Kiewa Valley Highway,Tawonga South,Vic,3698,Tawonga South,Vic,-36.73066356,147.15430311
31-St-Bernard-Drive-Tawonga-South-Vic-3698,31 St Bernard Drive,Tawonga South,Vic,3698,Tawonga South,Vic,-36.73394073,147.15305895
7-Myrtle-Street-Tawonga-South-Vic-3698,7 Myrtle Street,Tawonga South,Vic,3698,Tawonga South,Vic,-36.73338731,147.1526638
79-St-Bernard-Drive-Tawonga-South-Vic-3698,79 St Bernard Drive,Tawonga South,Vic,3698,Tawonga South,Vic,-36.73360336,147.14827034
11-St-Bernard-Drive-Tawonga-South-Vic-3698,11 St Bernard Drive,Tawonga South,Vic,3698,Tawonga South,Vic,-36.73393909,147.15496908
18-Stewarts-Road-Tawonga-South-Vic-3698,18 Stewarts Road,Tawonga South,Vic,3698,Tawonga South,Vic,-36.7371237,147.15524249
11-Coolumbooka-Avenue-Tawonga-South-Vic-3698,11 Coolumbooka Avenue,Tawonga South,Vic,3698,Tawonga South,Vic,-36.72690915,147.14920396
2144-Tawonga-Gap-Road-Tawonga-South-Vic-3698,2144 Tawonga Gap Road,Tawonga South,Vic,3698,Tawonga South,Vic,-36.71795029,147.14556905
13-Coolumbooka-Avenue-Tawonga-South-Vic-3698,13 Coolumbooka Avenue,Tawonga South,Vic,3698,Tawonga South,Vic,-36.72679844,147.14910789
17-Fiddleback-Drive-Tawonga-South-Vic-3698,17 Fiddleback Drive,Tawonga South,Vic,3698,Tawonga South,Vic,-36.72275458,147.14576582
9-Myrtle-Street-Tawonga-South-Vic-3698,9 Myrtle Street,Tawonga South,Vic,3698,Tawonga South,Vic,-36.73329856,147.1525497
37-Kiewa-Valley-Highway-Tawonga-South-Vic-3698,37 Kiewa Valley Highway,Tawonga South,Vic,3698,Tawonga South,Vic,-36.72164615,147.14764276
5-Coolumbooka-Avenue-Tawonga-South-Vic-3698,5 Coolumbooka Avenue,Tawonga South,Vic,3698,Tawonga South,Vic,-36.72724915,147.14949908
22-Fiddleback-Drive-Tawonga-South-Vic-3698,22 Fiddleback Drive,Tawonga South,Vic,3698,Tawonga South,Vic,-36.72166089,147.14624964
43-Ranch-Road-Tawonga-South-Vic-3698,43 Ranch Road,Tawonga South,Vic,3698,Tawonga South,Vic,-36.72026658,147.1427404
15-Allamar-Court-Tawonga-South-Vic-3698,15 Allamar Court,Tawonga South,Vic,3698,Tawonga South,Vic,-36.72559685,147.14774769
10-Allamar-Court-Tawonga-South-Vic-3698,10 Allamar Court,Tawonga South,Vic,3698,Tawonga South,Vic,-36.72429565,147.14762462
169-Simmonds-Creek-Road-Tawonga-South-Vic-3698,169 Simmonds Creek Road,Tawonga South,Vic,3698,Tawonga South,Vic,-36.749365,147.15219461
14-Damms-Court-Tawonga-South-Vic-3698,14 Damms Court,Tawonga South,Vic,3698,Tawonga South,Vic,-36.7316768,147.15308346
7751-Kiewa-Valley-Highway-Tawonga-South-Vic-3698,7751 Kiewa Valley Highway,Tawonga South,Vic,3698,Tawonga South,Vic,-36.73031644,147.1538736
19-Ranch-Road-Tawonga-South-Vic-3698,19 Ranch Road,Tawonga South,Vic,3698,Tawonga South,Vic,-36.71985741,147.14534139
27-St-Bernard-Drive-Tawonga-South-Vic-3698,27 St Bernard Drive,Tawonga South,Vic,3698,Tawonga South,Vic,-36.73394567,147.15359058
72-St-Bernard-Drive-Tawonga-South-Vic-3698,72 St Bernard Drive,Tawonga South,Vic,3698,Tawonga South,Vic,-36.73417377,147.15095171
6-Baker-Street-Tawonga-South-Vic-3698,6 Baker Street,Tawonga South,Vic,3698,Tawonga South,Vic,-36.7328059,147.15478539
21-Ranch-Road-Tawonga-South-Vic-3698,21 Ranch Road,Tawonga South,Vic,3698,Tawonga South,Vic,-36.7199004,147.1451371
89-Kiewa-Valley-Highway-Tawonga-South-Vic-3698,89 Kiewa Valley Highway,Tawonga South,Vic,3698,Tawonga South,Vic,-36.72646907,147.14985037
4-Dederang-Road-Tawonga-South-Vic-3698,4 Dederang Road,Tawonga South,Vic,3698,Tawonga South,Vic,-36.733477,147.15140072
19-Highland-Court-Tawonga-South-Vic-3698,19 Highland Court,Tawonga South,Vic,3698,Tawonga South,Vic,-36.75248189,147.1567365
16-Myrtle-Street-Tawonga-South-Vic-3698,16 Myrtle Street,Tawonga South,Vic,3698,Tawonga South,Vic,-36.73240222,147.15193166
9-Allamar-Court-Tawonga-South-Vic-3698,9 Allamar Court,Tawonga South,Vic,3698,Tawonga South,Vic,-36.72484035,147.14744203
1-Baker-Street-Tawonga-South-Vic-3698,1 Baker Street,Tawonga South,Vic,3698,Tawonga South,Vic,-36.73332325,147.1559186
175-Kiewa-Valley-Highway-Tawonga-South-Vic-3698,175 Kiewa Valley Highway,Tawonga South,Vic,3698,Tawonga South,Vic,-36.73227136,147.15533825
4-Damms-Court-Tawonga-South-Vic-3698,4 Damms Court,Tawonga South,Vic,3698,Tawonga South,Vic,-36.73207161,147.15372513
100-Glenbourn-Drive-Tawonga-South-Vic-3698,100 Glenbourn Drive,Tawonga South,Vic,3698,Tawonga South,Vic,-36.7508125,147.16068303
10-Reid-Court-Tawonga-South-Vic-3698,10 Reid Court,Tawonga South,Vic,3698,Tawonga South,Vic,-36.72653887,147.14791574
32-Young-Crescent-Tawonga-South-Vic-3698,32 Young Crescent,Tawonga South,Vic,3698,Tawonga South,Vic,-36.7321448,147.15248143
1-Young-Crescent-Tawonga-South-Vic-3698,1 Young Crescent,Tawonga South,Vic,3698,Tawonga South,Vic,-36.73304089,147.15506054
29-Simmonds-Creek-Road-Tawonga-South-Vic-3698,29 Simmonds Creek Road,Tawonga South,Vic,3698,Tawonga South,Vic,-36.74218189,147.16123601
155-Kiewa-Valley-Highway-Tawonga-South-Vic-3698,155 Kiewa Valley Highway,Tawonga South,Vic,3698,Tawonga South,Vic,-36.73133494,147.15422921
18-20-Stanley-Street-Wodonga-VIC-3690,18-20 Stanley Street,Wodonga,VIC,3690,,,0.0,0.0
17-Young-Crescent-Tawonga-South-Vic-3698,17 Young Crescent,Tawonga South,Vic,3698,Tawonga South,Vic,-36.732088,147.153037
34-Glenbourne-Drive-Tawonga-South-Vic-3698,34 Glenbourne Drive,Tawonga South,Vic,3698,Tawonga South,Vic,-36.74818479,147.1585439
6-Reid-Court-Tawonga-South-Vic-3698,6 Reid Court,Tawonga South,Vic,3698,Tawonga South,Vic,-36.72729805,147.1479875
33-35-Ranch-Road-Tawonga-South-Vic-3698,33-35 Ranch Road,Tawonga South,Vic,3698,Tawonga South,Vic,-36.72108776,147.14384049
107-Simmonds-Creek-Road-Tawonga-South-Vic-3698,107 Simmonds Creek Road,Tawonga South,Vic,3698,Tawonga South,Vic,-36.74691975,147.15713921
15-Coolumbooka-Avenue-Tawonga-South-Vic-3698,15 Coolumbooka Avenue,Tawonga South,Vic,3698,Tawonga South,Vic,-36.726704,147.148945
12-Dederang-Road-Tawonga-South-Vic-3698,12 Dederang Road,Tawonga South,Vic,3698,Tawonga South,Vic,-36.73292372,147.1515674
88-St-Bernard-Dr-Tawonga-South-Vic-3698,88 St Bernard Dr,Tawonga South,Vic,3698,Tawonga South,Vic,-36.73391131,147.14958758
43-Kiewa-Valley-Highway-Tawonga-South-Vic-3698,43 Kiewa Valley Highway,Tawonga South,Vic,3698,Tawonga South,Vic,-36.72215798,147.1478748
23-Young-Crescent-Tawonga-South-Vic-3698,23 Young Crescent,Tawonga South,Vic,3698,Tawonga South,Vic,-36.73186679,147.1526225
5-Morses-Court-Tawonga-South-Vic-3698,5 Morses Court,Tawonga South,Vic,3698,Tawonga South,Vic,-36.733128,147.15014
PO-Box-1414-Albury-NSW-2640,PO Box 1414,Albury,NSW,2640,,,0.0,0.0
2-Chamberlain-Court-Tawonga-South-Vic-3698,2 Chamberlain Court,Tawonga South,Vic,3698,Tawonga South,Vic,-36.720368,147.146313
11-Buckland-Street-Tawonga-South-Vic-3698,11 Buckland Street,Tawonga South,Vic,3698,Tawonga South,Vic,-36.72678258,147.14663833
77-St-Bernard-Drive-Tawonga-South-Vic-3698,77 St Bernard Drive,Tawonga South,Vic,3698,Tawonga South,Vic,-36.73360336,147.14827034
185-Simmonds-Creek-Road-Tawonga-South-Vic-3698,185 Simmonds Creek Road,Tawonga South,Vic,3698,Tawonga South,Vic,-36.76218145,147.14717753
17-Buckland-Street-Tawonga-South-Vic-3698,17 Buckland Street,Tawonga South,Vic,3698,Tawonga South,Vic,-36.72711157,147.14686535
96-St-Bernard-Drive-Tawonga-South-Vic-3698,96 St Bernard Drive,Tawonga South,Vic,3698,Tawonga South,Vic,-36.7337894,147.14871375
9-Fiddleback-Drive-Tawonga-South-Vic-3698,9 Fiddleback Drive,Tawonga South,Vic,3698,Tawonga South,Vic,-36.72178328,147.14653905
"Lot-2,-114-Simmonds-Creek-Road-Road-Tawonga-South-Vic-3698","Lot 2, 114 Simmonds Creek Road Road",Tawonga South,Vic,3698,Tawonga South,Vic,-36.76220575,147.14717518
5/6-Anderson-Street-Bright-VIC-3741,5/6 Anderson Street,Bright,VIC,3741,,,0.0,0.0
198-Simmonds-Creek-Road-Tawonga-South-Vic-3698,198 Simmonds Creek Road,Tawonga South,Vic,3698,Tawonga South,Vic,-36.75111864,147.14931355
"Lot-26,-7-Fiddleback-Drive-Tawonga-South-Vic-3698","Lot 26, 7 Fiddleback Drive",Tawonga South,Vic,3698,Tawonga South,Vic,-36.72224917,147.14669244
2-Fiddleback-Drive-Tawonga-South-Vic-3698,2 Fiddleback Drive,Tawonga South,Vic,3698,Tawonga South,Vic,-36.72301788,147.14718297
13(7601)-Kiewa-Valley-Highway-Tawonga-South-Vic-3698,13(7601) Kiewa Valley Highway,Tawonga South,Vic,3698,Tawonga South,Vic,-36.7191733,147.14647973
9-Feathertop-Street-Tawonga-South-Vic-3698,9 Feathertop Street,Tawonga South,Vic,3698,Tawonga South,Vic,-36.72818033,147.1498649
1-Buckland-Street-Tawonga-South-Vic-3698,1 Buckland Street,Tawonga South,Vic,3698,Tawonga South,Vic,-36.726073,147.146276
182B-Simmonds-Creek-Road-Tawonga-South-Vic-3698,182B Simmonds Creek Road,Tawonga South,Vic,3698,Tawonga South,Vic,-36.74963857,147.14973064
"Lot-2,-19-Ranch-Road-Tawonga-South-Vic-3698","Lot 2, 19 Ranch Road",Tawonga South,Vic,3698,Tawonga South,Vic,-36.720018,147.145456
14-Allamar-Court-Tawonga-South-Vic-3698,14 Allamar Court,Tawonga South,Vic,3698,Tawonga South,Vic,-36.72471455,147.14781677
181--Kiewa-Valley-Highway-Tawonga-South-Vic-3698,181  Kiewa Valley Highway,Tawonga South,Vic,3698,Tawonga South,Vic,-36.73243554,147.15554301
177-Kiewa-Valley-Highway-Tawonga-South-Vic-3698,177 Kiewa Valley Highway,Tawonga South,Vic,3698,Tawonga South,Vic,-36.73232825,147.1554092
27-Simmonds-Creek-Road-Tawonga-South-Vic-3698,27 Simmonds Creek Road,Tawonga South,Vic,3698,Tawonga South,Vic,-36.74200396,147.16119368
2-Marum-Court-Tawonga-South-Vic-3698,2 Marum Court,Tawonga South,Vic,3698,Tawonga South,Vic,-36.7276806,147.14891694
31-Kiewa-Valley-Highway-Tawonga-South-Vic-3698,31 Kiewa Valley Highway,Tawonga South,Vic,3698,Tawonga South,Vic,-36.72113346,147.14741033
10-Braeside-Court-Tawonga-South-Vic-3698,10 Braeside Court,Tawonga South,Vic,3698,Tawonga South,Vic,-36.73602616,147.15614639
7/1-Allamar-Court-Tawonga-South-Vic-3698,7/1 Allamar Court,Tawonga South,Vic,3698,Tawonga South,Vic,-36.72351628,147.1468314
85-Kiewa-Valley-Highway-Tawonga-South-Vic-3698,85 Kiewa Valley Highway,Tawonga South,Vic,3698,Tawonga South,Vic,-36.72610006,147.14968038
13-Baker-Street-Tawonga-South-Vic-3698,13 Baker Street,Tawonga South,Vic,3698,Tawonga South,Vic,-36.73280311,147.15526519
65-Kiewa-Valley-Highway-Tawonga-South-Vic-3698,65 Kiewa Valley Highway,Tawonga South,Vic,3698,Tawonga South,Vic,-36.72439215,147.14889366
9-Braeside-Court-Tawonga-South-Vic-3698,9 Braeside Court,Tawonga South,Vic,3698,Tawonga South,Vic,-36.7357813,147.15647904
14--Coolumbooka-Avenue-Tawonga-South-Vic-3698,14  Coolumbooka Avenue,Tawonga South,Vic,3698,Tawonga South,Vic,-36.7274903,147.14928832
23-Kiewa-Valley-Highway-Tawonga-South-Vic-3698,23 Kiewa Valley Highway,Tawonga South,Vic,3698,Tawonga South,Vic,-36.7204493,147.14710018
193-Kiewa-Valley-Highway-Tawonga-South-Vic-3698,193 Kiewa Valley Highway,Tawonga South,Vic,3698,Tawonga South,Vic,-36.7329472,147.15626926
228-230-Kiewa-Valley-Highway-Tawonga-South-Vic-3698,228-230 Kiewa Valley Highway,Tawonga South,Vic,3698,Tawonga South,Vic,-36.736204,147.160092
"Lot-3,-15-Ranch-Road-Tawonga-South-Vic-3698","Lot 3, 15 Ranch Road",Tawonga South,Vic,3698,Tawonga South,Vic,-36.720481,147.145368
"Lot-4,-17-Ranch-Road-Tawonga-South-Vic-3698","Lot 4, 17 Ranch Road",Tawonga South,Vic,3698,Tawonga South,Vic,-36.720729,147.145708
"Lot-27,-Fiddleback-Drive-Tawonga-South-Vic-3698","Lot 27, Fiddleback Drive",Tawonga South,Vic,3698,Tawonga South,Vic,-36.72216008,147.14598825
54--St-Bernard-Drive-Tawonga-South-Vic-3698,54  St Bernard Drive,Tawonga South,Vic,3698,Tawonga South,Vic,-36.7342231,147.15248755
1-Fiddleback-Drive-Tawonga-South-Vic-3698,1 Fiddleback Drive,Tawonga South,Vic,3698,Tawonga South,Vic,-36.72291,147.146607
67-St-Bernard-Drive-Tawonga-South-Vic-3698,67 St Bernard Drive,Tawonga South,Vic,3698,Tawonga South,Vic,-36.73353295,147.14915397
9-Kiewa-Valley-Highway-Tawonga-South-Vic-3698,9 Kiewa Valley Highway,Tawonga South,Vic,3698,Tawonga South,Vic,-36.71901578,147.14644066
1-Wonnangatta-Avenue-Tawonga-South-Vic-3698,1 Wonnangatta Avenue,Tawonga South,Vic,3698,Tawonga South,Vic,-36.732021,147.154442
5-Stewarts-Road-Tawonga-South-Vic-3698,5 Stewarts Road,Tawonga South,Vic,3698,Tawonga South,Vic,-36.73630096,147.155025
7-Braeside-Court-Tawonga-South-Vic-3698,7 Braeside Court,Tawonga South,Vic,3698,Tawonga South,Vic,-36.7355682,147.1565436
21-Summit-View-Road-Tawonga-South-Vic-3698,21 Summit View Road,Tawonga South,Vic,3698,Tawonga South,Vic,-36.75384111,147.14801745
4/208-222-Kiewa-Valley-HIghway-Tawonga-South-Vic-3698,4/208-222 Kiewa Valley HIghway,Tawonga South,Vic,3698,Tawonga South,Vic,-36.73466,147.158265
8-Baker-Street-Tawonga-South-Vic-3698,8 Baker Street,Tawonga South,Vic,3698,Tawonga South,Vic,-36.732777,147.154588
5-Highland-Court-Tawonga-South-Vic-3698,5 Highland Court,Tawonga South,Vic,3698,Tawonga South,Vic,-36.752193,147.155827
101-Kiewa-Valley-Highway-Tawonga-South-Vic-3698,101 Kiewa Valley Highway,Tawonga South,Vic,3698,Tawonga South,Vic,-36.727244,147.1501
59-St-Bernard-Drive-Tawonga-South-Vic-3698,59 St Bernard Drive,Tawonga South,Vic,3698,Tawonga South,Vic,-36.733696,147.150431
8-Vails-Road-Tawonga-South-Vic-3698,8 Vails Road,Tawonga South,Vic,3698,Tawonga South,Vic,-36.735332,147.15511
176-Kiewa-Valley-Highway-Tawonga-South-Vic-3698,176 Kiewa Valley Highway,Tawonga South,Vic,3698,Tawonga South,Vic,-36.731518,147.155911
13-15--StBernard-Drive-Tawonga-South-Vic-3698,13-15  StBernard Drive,Tawonga South,Vic,3698,Tawonga South,Vic,-36.733727,147.154773
"Suite-3,-Ground-Floor,-429-Swift-Street-Albury-NSW-2640","Suite 3, Ground Floor, 429 Swift Street",Albury,NSW,2640,,,0.0,0.0
31-Ranch-Road-Tawonga-South-Vic-3698,31 Ranch Road,Tawonga South,Vic,3698,Tawonga South,Vic,-36.72017,147.144234
"Lot-1,-Ranch-Road-Tawonga-South-Vic-3698","Lot 1, Ranch Road",Tawonga South,Vic,3698,Tawonga South,Vic,-36.7197884938,147.144492811
11-Reid-Court-Tawonga-South-Vic-3698,11 Reid Court,Tawonga South,Vic,3698,Tawonga South,Vic,-36.726441,147.1474
9-Reid-Court-Tawonga-South-Vic-3698,9 Reid Court,Tawonga South,Vic,3698,Tawonga South,Vic,-36.726584,147.147444
36-Sunrise-Lane-Tawonga-South-Vic-3698,36 Sunrise Lane,Tawonga South,Vic,3698,Tawonga South,Vic,0.0,0.0
177--Kiewa-Valley-Highway-Tawonga-South-Vic-3698,177  Kiewa Valley Highway,Tawonga South,Vic,3698,Tawonga South,Vic,-36.732347,147.155384
"Lot-2,-Heberles-Road-Tawonga-South-Vic-3698","Lot 2, Heberles Road",Tawonga South,Vic,3698,Tawonga South,Vic,-36.7308313505,147.155787175
12-Damms-Court-Tawonga-South-Vic-3698,12 Damms Court,Tawonga South,Vic,3698,Tawonga South,Vic,-36.731775,147.153156
163-Kiewa-Valley-Highway-Tawonga-South-Vic-3698,163 Kiewa Valley Highway,Tawonga South,Vic,3698,Tawonga South,Vic,-36.731821,147.154661
240-Simmonds-Creek-Road-Tawonga-South-Vic-3698,240 Simmonds Creek Road,Tawonga South,Vic,3698,Tawonga South,Vic,-36.751406,147.14863
25-Buckland-Street-Tawonga-South-Vic-3698,25 Buckland Street,Tawonga South,Vic,3698,Tawonga South,Vic,-36.728045,147.146805
29-Simmonds-Creek-road-Tawonga-South-Vic-3698,29 Simmonds Creek road,Tawonga South,Vic,3698,Tawonga South,Vic,-36.742211,147.161043
165-Kiewa-Valley-Highway-Tawonga-South-Vic-3698,165 Kiewa Valley Highway,Tawonga South,Vic,3698,Tawonga South,Vic,-36.731878,147.154717
21-Kiewa-Valley-Highway-Tawonga-South-Vic-3698,21 Kiewa Valley Highway,Tawonga South,Vic,3698,Tawonga South,Vic,-36.720292,147.146833
"Lot-10,-Fiddleback-Drive-Tawonga-South-Vic-3698","Lot 10, Fiddleback Drive",Tawonga South,Vic,3698,Tawonga South,Vic,-36.7217327,147.1464921
"Lot-11,-Fiddleback-Drive-Tawonga-South-Vic-3698","Lot 11, Fiddleback Drive",Tawonga South,Vic,3698,Tawonga South,Vic,-36.7217327,147.1464921
24-Young-Crescent-Tawonga-South-Vic-3698,24 Young Crescent,Tawonga South,Vic,3698,Tawonga South,Vic,-36.732533,147.152963
14-Wonnangatta-Avenue-Tawonga-South-Vic-3698,14 Wonnangatta Avenue,Tawonga South,Vic,3698,Tawonga South,Vic,-36.733626,147.153507
6--Baker-Street-Tawonga-South-Vic-3698,6  Baker Street,Tawonga South,Vic,3698,Tawonga South,Vic,-36.732871,147.154703
152-Kiewa-Valley-Highway-Tawonga-South-Vic-3698,152 Kiewa Valley Highway,Tawonga South,Vic,3698,Tawonga South,Vic,-36.7312577,147.1539266
30-Glenbourn-Drive-Tawonga-South-Vic-3698,30 Glenbourn Drive,Tawonga South,Vic,3698,Tawonga South,Vic,-36.74751,147.158348
5-Wonnangatta-Avenue-Tawonga-South-Vic-3698,5 Wonnangatta Avenue,Tawonga South,Vic,3698,Tawonga South,Vic,-36.73234,147.154051
10--Coolumbooka-Avenue-Tawonga-South-Vic-3698,10  Coolumbooka Avenue,Tawonga South,Vic,3698,Tawonga South,Vic,-36.727752,147.149406
20--Coolumbooka-Avenue-Tawonga-South-Vic-3698,20  Coolumbooka Avenue,Tawonga South,Vic,3698,Tawonga South,Vic,-36.727043,147.148819
11-Young-Crescent-Tawonga-South-Vic-3698,11 Young Crescent,Tawonga South,Vic,3698,Tawonga South,Vic,-36.732378,147.153397
195-Kiewa-Valley-Highway-Tawonga-South-Vic-3698,195 Kiewa Valley Highway,Tawonga South,Vic,3698,Tawonga South,Vic,-36.733103,147.15633
8-10--Feathertop-Street-Tawonga-South-Vic-3698,8-10  Feathertop Street,Tawonga South,Vic,3698,Tawonga South,Vic,-36.728613,147.150045
105--Kiewa-Valley-Highway-Tawonga-South-Vic-3698,105  Kiewa Valley Highway,Tawonga South,Vic,3698,Tawonga South,Vic,-36.72759,147.1504
13-Wonnangatta-Avenue-Tawonga-South-Vic-3698,13 Wonnangatta Avenue,Tawonga South,Vic,3698,Tawonga South,Vic,-36.732882,147.153379
7-Baker-Street-Tawonga-South-Vic-3698,7 Baker Street,Tawonga South,Vic,3698,Tawonga South,Vic,-36.733032,147.15571
18-Young-Crescent-Tawonga-South-Vic-3698,18 Young Crescent,Tawonga South,Vic,3698,Tawonga South,Vic,-36.733433,147.153811
40-Glenbourn-Drive-Tawonga-South-Vic-3698,40 Glenbourn Drive,Tawonga South,Vic,3698,Tawonga South,Vic,-36.748283,147.157616
13-Feathertop-Street-Tawonga-South-Vic-3698,13 Feathertop Street,Tawonga South,Vic,3698,Tawonga South,Vic,-36.728036,147.149521
2-Vails-Road-Tawonga-South-Vic-3698,2 Vails Road,Tawonga South,Vic,3698,Tawonga South,Vic,-36.734887,147.156537
6-Stewarts-Rd-Tawonga-South-Vic-3698,6 Stewarts Rd,Tawonga South,Vic,3698,Tawonga South,Vic,-36.735839,147.155643
Lot-2--Buckland-Street-Tawonga-South-Vic-3698,Lot 2  Buckland Street,Tawonga South,Vic,3698,Tawonga South,Vic,-36.7274305,147.1464341
101-Glenbourn-Drive-Tawonga-South-Vic-3698,101 Glenbourn Drive,Tawonga South,Vic,3698,Tawonga South,Vic,-36.75034,147.160073
11-Allamar-Court-Tawonga-South-Vic-3698,11 Allamar Court,Tawonga South,Vic,3698,Tawonga South,Vic,-36.72517,147.14717
20-Myrtle-Street-Tawonga-South-Vic-3698,20 Myrtle Street,Tawonga South,Vic,3698,Tawonga South,Vic,-36.732061,147.151717
3--Myrtle-Street-Tawonga-South-Vic-3698,3  Myrtle Street,Tawonga South,Vic,3698,Tawonga South,Vic,0.0,0.0
115-Kiewa-Valley-Highway-Tawonga-South-Vic-3698,115 Kiewa Valley Highway,Tawonga South,Vic,3698,Tawonga South,Vic,-36.728148,147.150877
5-Myrtle-Street-Tawonga-South-Vic-3698,5 Myrtle Street,Tawonga South,Vic,3698,Tawonga South,Vic,-36.73355,147.152688
30-Young-Crescent-Tawonga-South-Vic-3698,30 Young Crescent,Tawonga South,Vic,3698,Tawonga South,Vic,-36.732308,147.152522
19-Baker-Street-Tawonga-South-Vic-3698,19 Baker Street,Tawonga South,Vic,3698,Tawonga South,Vic,-36.732453,147.154985
3-Feathertop-Street-Tawonga-South-Vic-3698,3 Feathertop Street,Tawonga South,Vic,3698,Tawonga South,Vic,-36.728315,147.150447
158--Simmonds-Creek-Road-Tawonga-South-Vic-3698,158  Simmonds Creek Road,Tawonga South,Vic,3698,Tawonga South,Vic,-36.748122,147.151458
"158-Lot-2,-3,-4-Simmonds-Creek-Road-Tawonga-South-Vic-3698","158 Lot 2, 3, 4 Simmonds Creek Road",Tawonga South,Vic,3698,Tawonga South,Vic,0.0,0.0
7-Morses-Court-Tawonga-South-Vic-3698,7 Morses Court,Tawonga South,Vic,3698,Tawonga South,Vic,-36.73299,147.150156
16-Damms-Crt-Tawonga-South-Vic-3698,16 Damms Crt,Tawonga South,Vic,3698,Tawonga South,Vic,-36.731469,147.152949
94--Simmonds-Creek-Road-Tawonga-South-Vic-3698,94  Simmonds Creek Road,Tawonga South,Vic,3698,Tawonga South,Vic,-36.745663,147.158678
6-Marum-Court-Tawonga-South-Vic-3698,6 Marum Court,Tawonga South,Vic,3698,Tawonga South,Vic,-36.728056,147.148698
2-Dederang-Road-Tawonga-South-Vic-3698,2 Dederang Road,Tawonga South,Vic,3698,Tawonga South,Vic,-36.733562,147.151467
34-Sunrise-Ln-Tawonga-South-Vic-3698,34 Sunrise Ln,Tawonga South,Vic,3698,Tawonga South,Vic,0.0,0.0
9-Braeside-Crt.-Tawonga-South-Vic-3698,9 Braeside Crt.,Tawonga South,Vic,3698,Tawonga South,Vic,-36.735795,147.156536
14-Coolumbooka-Avenue-Tawonga-South-Vic-3698,14 Coolumbooka Avenue,Tawonga South,Vic,3698,Tawonga South,Vic,-36.72749,147.149288
1-Braeside-Court-Tawonga-South-Vic-3698,1 Braeside Court,Tawonga South,Vic,3698,Tawonga South,Vic,-36.735058,147.156538
14--Damms-Court-Tawonga-South-Vic-3698,14  Damms Court,Tawonga South,Vic,3698,Tawonga South,Vic,-36.731677,147.153083
271-Simmonds-Creek-Road-Tawonga-South-Vic-3698,271 Simmonds Creek Road,Tawonga South,Vic,3698,Tawonga South,Vic,-36.75486755,147.14562988
20-Allamar-Court-Tawonga-South-Vic-3698,20 Allamar Court,Tawonga South,Vic,3698,Tawonga South,Vic,-36.72530285,147.14808666
5A-Allamar-Court-Tawonga-South-Vic-3698,5A Allamar Court,Tawonga South,Vic,3698,Tawonga South,Vic,-36.72413911,147.14711863
106-Simmonds-Creek-Road-Tawonga-South-Vic-3698,106 Simmonds Creek Road,Tawonga South,Vic,3698,Tawonga South,Vic,-36.74638469,147.15731519
47-Kiewa-Valley-Highway-Tawonga-South-Vic-3698,47 Kiewa Valley Highway,Tawonga South,Vic,3698,Tawonga South,Vic,-36.72249776,147.14802885
158-Simmonds-Creek-Road-Tawonga-South-Vic-3698,158 Simmonds Creek Road,Tawonga South,Vic,3698,Tawonga South,Vic,-36.74895347,147.15223408
737-Bourke-St-Docklands-VIC-3008,737 Bourke St,Docklands,VIC,3008,,,0.0,0.0
7731-Kiewa-Valley-Highway-Tawonga-South-Vic-3698,7731 Kiewa Valley Highway,Tawonga South,Vic,3698,Tawonga South,Vic,-36.72903435,147.15254013
16-20-St-Bernard-Drive-Tawonga-South-Vic-3698,16-20 St Bernard Drive,Tawonga South,Vic,3698,Tawonga South,Vic,-36.73406445,147.15550521
23-25-Kiewa-Valley-Highway-Tawonga-South-Vic-3698,23-25 Kiewa Valley Highway,Tawonga South,Vic,3698,Tawonga South,Vic,-36.7204493,147.14710018
Address-available-on-request-Tawonga-South-Vic-3698,Address available on request,Tawonga South,Vic,3698,Tawonga South,Vic,0.0,0.0
173-Simmonds-Creek-Road-Tawonga-South-Vic-3698,173 Simmonds Creek Road,Tawonga South,Vic,3698,Tawonga South,Vic,-36.76218145,147.14717753
1-Stewarts-Road-Tawonga-South-Vic-3698,1 Stewarts Road,Tawonga South,Vic,3698,Tawonga South,Vic,-36.73567017,147.1551792
3-Baker-Street-Tawonga-South-Vic-3698,3 Baker Street,Tawonga South,Vic,3698,Tawonga South,Vic,-36.73332325,147.1559186
213-Kiewa-Valley-Highway-Tawonga-South-Vic-3698,213 Kiewa Valley Highway,Tawonga South,Vic,3698,Tawonga South,Vic,-36.70237405,147.14477965
157-Simmonds-Creek-Road-Tawonga-South-Vic-3698,157 Simmonds Creek Road,Tawonga South,Vic,3698,Tawonga South,Vic,-36.7489304,147.15284824
232-236-Kiewa-Valley-Highway-Tawonga-South-Vic-3698,232-236 Kiewa Valley Highway,Tawonga South,Vic,3698,Tawonga South,Vic,-36.73676035,147.16038055
20-Ireland-St-Bright-VIC-3741,20 Ireland St,Bright,VIC,3741,,,0.0,0.0
9-11-Baker-Street-Tawonga-South-Vic-3698,9-11 Baker Street,Tawonga South,Vic,3698,Tawonga South,Vic,-36.73295014,147.15544986
41/464-480-Kent-Street-Sydney-NSW-2000,41/464-480 Kent Street,Sydney,NSW,2000,,,0.0,0.0
6-Morses-Crt-Tawonga-South-Vic-3698,6 Morses Crt,Tawonga South,Vic,3698,Tawonga South,Vic,-36.7331663,147.15059548
102-Glenbourn-Drive-Tawonga-South-Vic-3698,102 Glenbourn Drive,Tawonga South,Vic,3698,Tawonga South,Vic,-36.7504889,147.16128204
"Lot-13,-Fiddleback-Drive-Tawonga-South-Vic-3698","Lot 13, Fiddleback Drive",Tawonga South,Vic,3698,Tawonga South,Vic,-36.722148,147.145994
"Lot--3-,-Fiddleback-Drive-Tawonga-South-Vic-3698","Lot  3 , Fiddleback Drive",Tawonga South,Vic,3698,Tawonga South,Vic,-36.722148,147.145994
297-Schubach-Street-Albury-NSW-2640,297 Schubach Street,Albury,NSW,2640,,,0.0,0.0
1-Guy-Court-Tawonga-South-Vic-3698,1 Guy Court,Tawonga South,Vic,3698,Tawonga South,Vic,-36.733264,147.149187
10-Baker-Street-Tawonga-South-Vic-3698,10 Baker Street,Tawonga South,Vic,3698,Tawonga South,Vic,-36.732634,147.154409
31-Heberles-Road-Tawonga-South-Vic-3698,31 Heberles Road,Tawonga South,Vic,3698,Tawonga South,Vic,-36.730444,147.154699
11-StBernard-Drive-Tawonga-South-Vic-3698,11 StBernard Drive,Tawonga South,Vic,3698,Tawonga South,Vic,-36.733727,147.154773
169-Kiewa-Valley-Highway-Tawonga-South-Vic-3698,169 Kiewa Valley Highway,Tawonga South,Vic,3698,Tawonga South,Vic,-36.732119,147.155102
196-Simmonds-Creek-Road-Tawonga-South-Vic-3698,196 Simmonds Creek Road,Tawonga South,Vic,3698,Tawonga South,Vic,-36.750569,147.148162
PO-Box-112-Scarborough-WA-6019,PO Box 112,Scarborough,WA,6019,,,0.0,0.0
3-Reid-Court-Tawonga-South-Vic-3698,3 Reid Court,Tawonga South,Vic,3698,Tawonga South,Vic,-36.727564,147.147347
12-Coolumbooka-Avenue-Tawonga-South-Vic-3698,12 Coolumbooka Avenue,Tawonga South,Vic,3698,Tawonga South,Vic,-36.72764,147.149287
2-Damms-Court-Tawonga-South-Vic-3698,2 Damms Court,Tawonga South,Vic,3698,Tawonga South,Vic,-36.732255,147.153797
2/1-Allamar-Court-Tawonga-South-Vic-3698,2/1 Allamar Court,Tawonga South,Vic,3698,Tawonga South,Vic,-36.723349,147.14636
183-Kiewa-Valley-Highway-Tawonga-South-Vic-3698,183 Kiewa Valley Highway,Tawonga South,Vic,3698,Tawonga South,Vic,-36.732507,147.155586
6-Myrtle-Street-Tawonga-South-Vic-3698,6 Myrtle Street,Tawonga South,Vic,3698,Tawonga South,Vic,-36.732822,147.1526
252--Simmonds-Creek-Road-Tawonga-South-Vic-3698,252  Simmonds Creek Road,Tawonga South,Vic,3698,Tawonga South,Vic,-36.75313,147.144023
"Lot-5,-Simmonds-Creek-Road-Tawonga-South-Vic-3698","Lot 5, Simmonds Creek Road",Tawonga South,Vic,3698,Tawonga South,Vic,-36.758407,147.147468
"Lot-2,-Ranch-Road-Tawonga-South-Vic-3698","Lot 2, Ranch Road",Tawonga South,Vic,3698,Tawonga South,Vic,-36.7197884938,147.144492811
Fiddleback-Drive-Tawonga-South-Vic-3698,Fiddleback Drive,Tawonga South,Vic,3698,Tawonga South,Vic,-36.7221444829,147.145999361
"Lot-2,-Simmonds-Creek-Road-Tawonga-South-Vic-3698","Lot 2, Simmonds Creek Road",Tawonga South,Vic,3698,Tawonga South,Vic,-36.75840664,147.1474679
28-Young-Crescent-Tawonga-South-Vic-3698,28 Young Crescent,Tawonga South,Vic,3698,Tawonga South,Vic,-36.732403,147.152641
8-Young-Crescent-Tawonga-South-Vic-3698,8 Young Crescent,Tawonga South,Vic,3698,Tawonga South,Vic,-36.733544,147.154632
272-Simmonds-Creek-Road-Tawonga-South-Vic-3698,272 Simmonds Creek Road,Tawonga South,Vic,3698,Tawonga South,Vic,-36.758407,147.147468
34-Sunrise-Lane-Tawonga-South-Vic-3698,34 Sunrise Lane,Tawonga South,Vic,3698,Tawonga South,Vic,-36.718679,147.144539
45-Ranch-Road-Tawonga-South-Vic-3698,45 Ranch Road,Tawonga South,Vic,3698,Tawonga South,Vic,-36.72154,147.141519
4-Stewarts-Road-Tawonga-South-Vic-3698,4 Stewarts Road,Tawonga South,Vic,3698,Tawonga South,Vic,-36.735609,147.155701
27A-Clyde-Street-Myrtleford-VIC-3737,27A Clyde Street,Myrtleford,VIC,3737,,,0.0,0.0
217-Simmonds-Creek-Road-Tawonga-South-Vic-3698,217 Simmonds Creek Road,Tawonga South,Vic,3698,Tawonga South,Vic,-36.751935,147.148409
16-20-St.-Bernard-Drive-Tawonga-South-Vic-3698,16-20 St. Bernard Drive,Tawonga South,Vic,3698,Tawonga South,Vic,-36.734207,147.15541
"19-Feathertop-Street,-Tawonga-South-Vic-3698","19 Feathertop Street,",Tawonga South,Vic,3698,Tawonga South,Vic,-36.727967,147.149099
7-Young-Crescent-Tawonga-South-Vic-3698,7 Young Crescent,Tawonga South,Vic,3698,Tawonga South,Vic,-36.733139,147.154208
"Lot-8,-Fiddleback-Drive-Tawonga-South-Vic-3698","Lot 8, Fiddleback Drive",Tawonga South,Vic,3698,Tawonga South,Vic,-36.722148,147.145994
74-St-Bernard-Drive-Tawonga-South-Vic-3698,74 St Bernard Drive,Tawonga South,Vic,3698,Tawonga South,Vic,-36.734225,147.150758
"Lot-3,-217-Simmonds-Creek-Road-Tawonga-South-Vic-3698","Lot 3, 217 Simmonds Creek Road",Tawonga South,Vic,3698,Tawonga South,Vic,-36.751935,147.148409
"Lot-2-,-217--Simmonds-Creek-Road-Tawonga-South-Vic-3698","Lot 2 , 217  Simmonds Creek Road",Tawonga South,Vic,3698,Tawonga South,Vic,-36.751935,147.148409
"Suite-3129,-29/97-Creek-Street-Brisbane-City-QLD-4000","Suite 3129, 29/97 Creek Street",Brisbane City,QLD,4000,,,0.0,0.0
27-Herberles-Road-Tawonga-South-Vic-3698,27 Herberles Road,Tawonga South,Vic,3698,Tawonga South,Vic,-36.7308313505,147.155787175
258A-Kiewa-Valley-Highway-Tawonga-South-Vic-3698,258A Kiewa Valley Highway,Tawonga South,Vic,3698,Tawonga South,Vic,-36.738517,147.162037
21-Simmonds-Creek-Road-Tawonga-South-Vic-3698,21 Simmonds Creek Road,Tawonga South,Vic,3698,Tawonga South,Vic,-36.741497,147.160873
35--Kiewa-Valley-Highway-Tawonga-South-Vic-3698,35  Kiewa Valley Highway,Tawonga South,Vic,3698,Tawonga South,Vic,-36.721529,147.147389
5-Reid-Court-Tawonga-South-Vic-3698,5 Reid Court,Tawonga South,Vic,3698,Tawonga South,Vic,-36.727353,147.147408
21-Young-Crescent-Tawonga-South-Vic-3698,21 Young Crescent,Tawonga South,Vic,3698,Tawonga South,Vic,-36.731894,147.152796
2-&-4-Baker-Street-Tawonga-South-Vic-3698,2 & 4 Baker Street,Tawonga South,Vic,3698,Tawonga South,Vic,-36.733415,147.15539
46-Ranch-Road-Tawonga-South-Vic-3698,46 Ranch Road,Tawonga South,Vic,3698,Tawonga South,Vic,-36.719282,147.141242
285-Simmonds-Creek-Road-Tawonga-South-Vic-3698,285 Simmonds Creek Road,Tawonga South,Vic,3698,Tawonga South,Vic,-36.756149,147.146861
13--Reid-Court-Tawonga-South-Vic-3698,13  Reid Court,Tawonga South,Vic,3698,Tawonga South,Vic,-36.726279,147.147351
12-Allamar-Court-Tawonga-South-Vic-3698,12 Allamar Court,Tawonga South,Vic,3698,Tawonga South,Vic,-36.724594,147.148069
175--Kiewa-Valley-HIghway-Tawonga-South-Vic-3698,175  Kiewa Valley HIghway,Tawonga South,Vic,3698,Tawonga South,Vic,-36.732288,147.155315
1-Omeo-Court-Tawonga-South-Vic-3698,1 Omeo Court,Tawonga South,Vic,3698,Tawonga South,Vic,-36.733229,147.151923
81-83-Kiewa-Valley-Highway-Tawonga-South-Vic-3698,81-83 Kiewa Valley Highway,Tawonga South,Vic,3698,Tawonga South,Vic,-36.69046,147.142684
79-Kiewa-Valley-Highway-Tawonga-South-Vic-3698,79 Kiewa Valley Highway,Tawonga South,Vic,3698,Tawonga South,Vic,-36.72582,147.149336
23-St.-Bernard-Drive-Tawonga-South-Vic-3698,23 St. Bernard Drive,Tawonga South,Vic,3698,Tawonga South,Vic,-36.733861,147.153931
29-Kiewa-Valley-Highway-Tawonga-South-Vic-3698,29 Kiewa Valley Highway,Tawonga South,Vic,3698,Tawonga South,Vic,-36.721011,147.147156
27-29--St-Bernard-Drive-Tawonga-South-Vic-3698,27-29  St Bernard Drive,Tawonga South,Vic,3698,Tawonga South,Vic,-36.733862,147.153421
2142-Tawonga-Gap-Road-Tawonga-South-Vic-3698,2142 Tawonga Gap Road,Tawonga South,Vic,3698,Tawonga South,Vic,-36.71801,147.145214
5-Marum-Court-Tawonga-South-Vic-3698,5 Marum Court,Tawonga South,Vic,3698,Tawonga South,Vic,-36.727675,147.148318
39-Ranch-Road-Tawonga-South-Vic-3698,39 Ranch Road,Tawonga South,Vic,3698,Tawonga South,Vic,-36.720669,147.143168
254-Kiewa-Valley-Highway-Tawonga-South-Vic-3698,254 Kiewa Valley Highway,Tawonga South,Vic,3698,Tawonga South,Vic,-36.738531,147.161624
11-Ranch-Road-Tawonga-South-Vic-3698,11 Ranch Road,Tawonga South,Vic,3698,Tawonga South,Vic,-36.719353,147.145874
10--Buckland-Street-Tawonga-South-Vic-3698,10  Buckland Street,Tawonga South,Vic,3698,Tawonga South,Vic,-36.727205,147.147049
45--St-Bernard-Drive-Tawonga-South-Vic-3698,45  St Bernard Drive,Tawonga South,Vic,3698,Tawonga South,Vic,0.0,0.0
2-Omeo-Court-Tawonga-South-Vic-3698,2 Omeo Court,Tawonga South,Vic,3698,Tawonga South,Vic,-36.733579,147.152367
1-Feathertop-Street-Tawonga-South-Vic-3698,1 Feathertop Street,Tawonga South,Vic,3698,Tawonga South,Vic,-36.728202,147.150596
21-Coolumbooka-Avenue-Tawonga-South-Vic-3698,21 Coolumbooka Avenue,Tawonga South,Vic,3698,Tawonga South,Vic,-36.726368,147.148835
"Lot-678,-Kiewa-Valley-Highway-Tawonga-South-Vic-3698","Lot 678, Kiewa Valley Highway",Tawonga South,Vic,3698,Tawonga South,Vic,-36.7289837,147.1521978
60-St-Bernard-Dve.-Tawonga-South-Vic-3698,60 St Bernard Dve.,Tawonga South,Vic,3698,Tawonga South,Vic,-36.734313,147.151951
172-Simmonds-Creek-Road-Tawonga-South-Vic-3698,172 Simmonds Creek Road,Tawonga South,Vic,3698,Tawonga South,Vic,-36.7494871,147.1515251
119-Kiewa-Valley-Highway-Tawonga-South-Vic-3698,119 Kiewa Valley Highway,Tawonga South,Vic,3698,Tawonga South,Vic,-36.728511,147.151183
258-Kiewa-Valley-Highway-Tawonga-South-Vic-3698,258 Kiewa Valley Highway,Tawonga South,Vic,3698,Tawonga South,Vic,-36.738661,147.162154
17-Feathertop-Street-Tawonga-South-Vic-3698,17 Feathertop Street,Tawonga South,Vic,3698,Tawonga South,Vic,-36.727967,147.149099
7573-Kiewa-Valley-Highway-Tawonga-South-Vic-3698,7573 Kiewa Valley Highway,Tawonga South,Vic,3698,Tawonga South,Vic,-36.715798,147.146005
92-Glenbourn-Drive-Tawonga-South-Vic-3698,92 Glenbourn Drive,Tawonga South,Vic,3698,Tawonga South,Vic,-36.752105,147.159919
13-Coolumbooka-Tawonga-South-Vic-3698,13 Coolumbooka,Tawonga South,Vic,3698,Tawonga South,Vic,-36.726705,147.149193
21-Young-Cres-Tawonga-South-Vic-3698,21 Young Cres,Tawonga South,Vic,3698,Tawonga South,Vic,-36.731894,147.152796
25-St-Bernard-Drive-Tawonga-South-Vic-3698,25 St Bernard Drive,Tawonga South,Vic,3698,Tawonga South,Vic,-36.733863,147.15376
22-Glenbourne-Dve-Tawonga-South-Vic-3698,22 Glenbourne Dve,Tawonga South,Vic,3698,Tawonga South,Vic,-36.74729919,147.15965271
123-Kiewa-Valley-Highway-Tawonga-South-Vic-3698,123 Kiewa Valley Highway,Tawonga South,Vic,3698,Tawonga South,Vic,-36.728805,147.151437
"Lot-2,-Bright-Gap-Road-Tawonga-South-Vic-3698","Lot 2, Bright Gap Road",Tawonga South,Vic,3698,Tawonga South,Vic,0.0,0.0
8-St-Bernard-Dve-Tawonga-South-Vic-3698,8 St Bernard Dve,Tawonga South,Vic,3698,Tawonga South,Vic,-36.733714,147.156239
5--Baker-Street-Tawonga-South-Vic-3698,5  Baker Street,Tawonga South,Vic,3698,Tawonga South,Vic,-36.733133,147.155834
51-St-Bernard-Dve-Tawonga-South-Vic-3698,51 St Bernard Dve,Tawonga South,Vic,3698,Tawonga South,Vic,-36.733865,147.151287
153-Kiewa-Valley-Highway-Tawonga-South-Vic-3698,153 Kiewa Valley Highway,Tawonga South,Vic,3698,Tawonga South,Vic,-36.73109,147.1543538
131-Simmonds-Creek-Road-Tawonga-South-Vic-3698,131 Simmonds Creek Road,Tawonga South,Vic,3698,Tawonga South,Vic,-36.747966,147.155795
5-Kiewa-Valley-Highway-Tawonga-South-Vic-3698,5 Kiewa Valley Highway,Tawonga South,Vic,3698,Tawonga South,Vic,-36.718502,147.146208
14-16-Young-Crescent-Tawonga-South-Vic-3698,14-16 Young Crescent,Tawonga South,Vic,3698,Tawonga South,Vic,-36.733563,147.154087
5-Braeside-Court-Tawonga-South-Vic-3698,5 Braeside Court,Tawonga South,Vic,3698,Tawonga South,Vic,-36.735379,147.156715
26--Coolumbooka-Ave-Tawonga-South-Vic-3698,26  Coolumbooka Ave,Tawonga South,Vic,3698,Tawonga South,Vic,-36.726976,147.148295
63--StBernard-Drive-Tawonga-South-Vic-3698,63  StBernard Drive,Tawonga South,Vic,3698,Tawonga South,Vic,-36.733602,147.149912
13-Antonio-Cl-Tawonga-South-Vic-3698,13 Antonio Cl,Tawonga South,Vic,3698,Tawonga South,Vic,-36.713272,147.144987
7a--Allamar-Court-Tawonga-South-Vic-3698,7a  Allamar Court,Tawonga South,Vic,3698,Tawonga South,Vic,-36.724581,147.147322
4-Braeside-Crt-Tawonga-South-Vic-3698,4 Braeside Crt,Tawonga South,Vic,3698,Tawonga South,Vic,-36.735496,147.156097
9-Damms-Crt-Tawonga-South-Vic-3698,9 Damms Crt,Tawonga South,Vic,3698,Tawonga South,Vic,-36.731534,147.153712
6-St-Bernard-Dve-Tawonga-South-Vic-3698,6 St Bernard Dve,Tawonga South,Vic,3698,Tawonga South,Vic,-36.733554,147.156283
609-Olive-Street-Albury-NSW-2640,609 Olive Street,Albury,NSW,2640,,,0.0,0.0
"Lots-2,-3-&-4,-Kiewa-Valley-Highway-Tawonga-South-Vic-3698","Lots 2, 3 & 4, Kiewa Valley Highway",Tawonga South,Vic,3698,Tawonga South,Vic,-36.7289837,147.1521978
2140-Tawonga-Gap-Road-Tawonga-South-Vic-3698,2140 Tawonga Gap Road,Tawonga South,Vic,3698,Tawonga South,Vic,-36.71769714,147.14501953
13-Reid-Crt-Tawonga-South-Vic-3698,13 Reid Crt,Tawonga South,Vic,3698,Tawonga South,Vic,-36.726279,147.147351
166-Kiewa-Valley-Highway-Tawonga-South-Vic-3698,166 Kiewa Valley Highway,Tawonga South,Vic,3698,Tawonga South,Vic,-36.731023,147.155334
180-Kiewa-Valley-Highway-Tawonga-South-Vic-3698,180 Kiewa Valley Highway,Tawonga South,Vic,3698,Tawonga South,Vic,-36.7321491,147.1557785
19-Feathertop-Street-Tawonga-South-Vic-3698,19 Feathertop Street,Tawonga South,Vic,3698,Tawonga South,Vic,-36.72803116,147.14912415
"Lot-2,-Kiewa-Valley-Highway-Tawonga-South-Vic-3698","Lot 2, Kiewa Valley Highway",Tawonga South,Vic,3698,Tawonga South,Vic,-36.7295234,147.1526581
16-Dederang-Rd-Tawonga-South-Vic-3698,16 Dederang Rd,Tawonga South,Vic,3698,Tawonga South,Vic,-36.732638,147.151718
Simmonds-Creek-Rd-Tawonga-South-Vic-3698,Simmonds Creek Rd,Tawonga South,Vic,3698,Tawonga South,Vic,-36.75264359,147.14564514
76--StBernard-Drive-Tawonga-South-Vic-3698,76  StBernard Drive,Tawonga South,Vic,3698,Tawonga South,Vic,-36.734194,147.150589
90-St-Bernard-Drive-Tawonga-South-Vic-3698,90 St Bernard Drive,Tawonga South,Vic,3698,Tawonga South,Vic,-36.73388,147.149427
15-Kiewa-Valley-Highway-Tawonga-South-Vic-3698,15 Kiewa Valley Highway,Tawonga South,Vic,3698,Tawonga South,Vic,-36.719618,147.146713
3-Wonnangatta-Avenue-Tawonga-South-Vic-3698,3 Wonnangatta Avenue,Tawonga South,Vic,3698,Tawonga South,Vic,-36.732168,147.15437
2-Wonnangatta-Avenue-Tawonga-South-Vic-3698,2 Wonnangatta Avenue,Tawonga South,Vic,3698,Tawonga South,Vic,-36.732812,147.154211
5-St-Bernard-Drive-Tawonga-South-Vic-3698,5 St Bernard Drive,Tawonga South,Vic,3698,Tawonga South,Vic,-36.73376465,147.15545654
"Lot-649,-Young-Cres-Tawonga-South-Vic-3698","Lot 649, Young Cres",Tawonga South,Vic,3698,Tawonga South,Vic,-36.732777,147.153501
178-Kiewa-Valley-H/way-Tawonga-South-Vic-3698,178 Kiewa Valley H/way,Tawonga South,Vic,3698,Tawonga South,Vic,-36.742424,147.173315
55-St-Bernard-Dve-Tawonga-South-Vic-3698,55 St Bernard Dve,Tawonga South,Vic,3698,Tawonga South,Vic,0.0,0.0
6-Feathertop-St-Tawonga-South-Vic-3698,6 Feathertop St,Tawonga South,Vic,3698,Tawonga South,Vic,-36.728589,147.150252
10-St-Bernard-Dve-Tawonga-South-Vic-3698,10 St Bernard Dve,Tawonga South,Vic,3698,Tawonga South,Vic,-36.733748,147.156043
14-16-Young-Crescent-Tawonga-South-Vic-3699,14-16 Young Crescent,Tawonga South,Vic,3699,Tawonga South,Vic,-36.73345184,147.15406799
95-Simmonds-Creek-Road-Tawonga-South-Vic-3698,95 Simmonds Creek Road,Tawonga South,Vic,3698,Tawonga South,Vic,-36.74622726,147.15841675
67-Kiewa-Valley-H/wy-Tawonga-South-Vic-3698,67 Kiewa Valley H/wy,Tawonga South,Vic,3698,Tawonga South,Vic,0.0,0.0
10-Dederang-Road-Tawonga-South-Vic-3698,10 Dederang Road,Tawonga South,Vic,3698,Tawonga South,Vic,-36.73305893,147.15151978
37-St-Bernard-Dve-Tawonga-South-Vic-3698,37 St Bernard Dve,Tawonga South,Vic,3698,Tawonga South,Vic,-36.73394012,147.15254211
11-Kiewa-Valley-Highway-Tawonga-South-Vic-3698,11 Kiewa Valley Highway,Tawonga South,Vic,3698,Tawonga South,Vic,-36.68478775,147.13868713
73-St-Bernard-Drive-Tawonga-South-Vic-3699,73 St Bernard Drive,Tawonga South,Vic,3699,Tawonga South,Vic,-36.73352051,147.14863586
"Lot-3,-Wonnangatta-Avenue-Tawonga-South-Vic-3698","Lot 3, Wonnangatta Avenue",Tawonga South,Vic,3698,Tawonga South,Vic,-36.73294449,147.15365601
13-Dederang-Road-Tawonga-South-Vic-3698,13 Dederang Road,Tawonga South,Vic,3698,Tawonga South,Vic,-36.73221588,147.15142822
1-Stewarts-Rd-Tawonga-South-Vic-3698,1 Stewarts Rd,Tawonga South,Vic,3698,Tawonga South,Vic,-36.73566818,147.15518188
25-Young-Cres-Tawonga-South-Vic-3698,25 Young Cres,Tawonga South,Vic,3698,Tawonga South,Vic,-36.731771,147.152505
